{
  "norad_id": 19548,
  "name": "TDRS 3",
  "history": [
    {
      "epoch": "2026-04-17T18:18:21.320064Z",
      "apogee_km": 35957.67358496972,
      "perigee_km": 35612.137332888604,
      "latitude_deg": 12.651491681367906,
      "longitude_deg": -48.478193408148414,
      "height_km": 35798.46121177995,
      "semi_major_axis_km": 42163.042458929165,
      "eccentricity": 0.00409762,
      "inclination_deg": 12.649,
      "raan_deg": 341.3987,
      "arg_perigee_deg": 355.1628,
      "mean_anomaly_deg": 94.951,
      "mean_motion_rev_day": 1.00277812
    },
    {
      "epoch": "2026-04-18T11:57:56.531808Z",
      "apogee_km": 35957.82788731919,
      "perigee_km": 35612.17364066721,
      "latitude_deg": -0.9162988095720792,
      "longitude_deg": -48.84829511159741,
      "height_km": 35612.043245547895,
      "semi_major_axis_km": 42163.1377639932,
      "eccentricity": 0.00409901,
      "inclination_deg": 12.6479,
      "raan_deg": 341.3946,
      "arg_perigee_deg": 355.1902,
      "mean_anomaly_deg": 0.5635,
      "mean_motion_rev_day": 1.00277472
    },
    {
      "epoch": "2026-04-19T11:55:23.712672Z",
      "apogee_km": 35958.04574923796,
      "perigee_km": 35612.19572479401,
      "latitude_deg": -0.8345857274963376,
      "longitude_deg": -48.83530225479068,
      "height_km": 35612.132891730755,
      "semi_major_axis_km": 42163.257737015985,
      "eccentricity": 0.00410132,
      "inclination_deg": 12.6471,
      "raan_deg": 341.3889,
      "arg_perigee_deg": 355.2228,
      "mean_anomaly_deg": 0.9012,
      "mean_motion_rev_day": 1.00277044
    },
    {
      "epoch": "2026-04-20T11:52:49.404000Z",
      "apogee_km": 35958.25825350565,
      "perigee_km": 35612.195697538315,
      "latitude_deg": -0.754940825712875,
      "longitude_deg": -48.823086251783174,
      "height_km": 35612.17441879002,
      "semi_major_axis_km": 42163.363975521985,
      "eccentricity": 0.00410383,
      "inclination_deg": 12.6463,
      "raan_deg": 341.3832,
      "arg_perigee_deg": 355.2794,
      "mean_anomaly_deg": 1.2073,
      "mean_motion_rev_day": 1.00276665
    },
    {
      "epoch": "2026-04-21T11:50:14.612352Z",
      "apogee_km": 35958.44488328423,
      "perigee_km": 35612.19856026104,
      "latitude_deg": -0.6762441714206966,
      "longitude_deg": -48.811947229053736,
      "height_km": 35612.18773974585,
      "semi_major_axis_km": 42163.45872177264,
      "eccentricity": 0.004106,
      "inclination_deg": 12.6455,
      "raan_deg": 341.3775,
      "arg_perigee_deg": 355.3632,
      "mean_anomaly_deg": 1.4829,
      "mean_motion_rev_day": 1.00276327
    },
    {
      "epoch": "2026-04-22T01:39:38.612160Z",
      "apogee_km": 35958.53068540353,
      "perigee_km": 35612.216474902394,
      "latitude_deg": -5.233959367026531,
      "longitude_deg": -49.63461438282998,
      "height_km": 35936.919902194095,
      "semi_major_axis_km": 42163.510580152964,
      "eccentricity": 0.0041068,
      "inclination_deg": 12.645,
      "raan_deg": 341.3743,
      "arg_perigee_deg": 355.4258,
      "mean_anomaly_deg": 209.3493,
      "mean_motion_rev_day": 1.00276142
    },
    {
      "epoch": "2026-04-23T00:02:38.608800Z",
      "apogee_km": 35958.65615328161,
      "perigee_km": 35612.24181736962,
      "latitude_deg": -0.3233748695673379,
      "longitude_deg": -48.94671912980621,
      "height_km": 35957.11234704179,
      "semi_major_axis_km": 42163.58598532562,
      "eccentricity": 0.00410798,
      "inclination_deg": 12.6443,
      "raan_deg": 341.3688,
      "arg_perigee_deg": 355.5343,
      "mean_anomaly_deg": 185.9275,
      "mean_motion_rev_day": 1.00275873
    },
    {
      "epoch": "2026-04-24T11:42:34.049376Z",
      "apogee_km": 35958.67905902814,
      "perigee_km": 35612.42242256317,
      "latitude_deg": -0.4372312239110337,
      "longitude_deg": -48.78832646836478,
      "height_km": 35612.33357450645,
      "semi_major_axis_km": 42163.687740795656,
      "eccentricity": 0.0041061,
      "inclination_deg": 12.643,
      "raan_deg": 341.3601,
      "arg_perigee_deg": 355.7629,
      "mean_anomaly_deg": 2.1709,
      "mean_motion_rev_day": 1.0027551
    },
    {
      "epoch": "2026-04-25T11:39:48.574368Z",
      "apogee_km": 35958.62799049921,
      "perigee_km": 35612.60692317374,
      "latitude_deg": -0.36827614684215165,
      "longitude_deg": -48.783564535474895,
      "height_km": 35612.49934483571,
      "semi_major_axis_km": 42163.75445683648,
      "eccentricity": 0.0041033,
      "inclination_deg": 12.6422,
      "raan_deg": 341.3539,
      "arg_perigee_deg": 355.9255,
      "mean_anomaly_deg": 2.3192,
      "mean_motion_rev_day": 1.00275272
    },
    {
      "epoch": "2026-04-26T11:37:21.199296Z",
      "apogee_km": 35958.485281667185,
      "perigee_km": 35612.87689755028,
      "latitude_deg": -0.2824791364279741,
      "longitude_deg": -48.78168404790217,
      "height_km": 35612.78164585511,
      "semi_major_axis_km": 42163.818089608736,
      "eccentricity": 0.0040984,
      "inclination_deg": 12.6414,
      "raan_deg": 341.3476,
      "arg_perigee_deg": 356.1007,
      "mean_anomaly_deg": 2.53,
      "mean_motion_rev_day": 1.00275045
    },
    {
      "epoch": "2026-04-27T11:34:53.164992Z",
      "apogee_km": 35958.29197579454,
      "perigee_km": 35613.19746944758,
      "latitude_deg": -0.19731132815588862,
      "longitude_deg": -48.78148785440464,
      "height_km": 35613.14491523776,
      "semi_major_axis_km": 42163.88172262107,
      "eccentricity": 0.0040923,
      "inclination_deg": 12.6406,
      "raan_deg": 341.341,
      "arg_perigee_deg": 356.2741,
      "mean_anomaly_deg": 2.7392,
      "mean_motion_rev_day": 1.00274818
    },
    {
      "epoch": "2026-04-28T11:32:18.634272Z",
      "apogee_km": 35958.04245454629,
      "perigee_km": 35613.579863665655,
      "latitude_deg": -0.11833143332873831,
      "longitude_deg": -48.782161793317144,
      "height_km": 35613.59461355483,
      "semi_major_axis_km": 42163.948159105974,
      "eccentricity": 0.0040848,
      "inclination_deg": 12.6398,
      "raan_deg": 341.3342,
      "arg_perigee_deg": 356.4445,
      "mean_anomaly_deg": 2.9237,
      "mean_motion_rev_day": 1.00274581
    },
    {
      "epoch": "2026-04-29T11:29:45.401280Z",
      "apogee_km": 35957.74501248559,
      "perigee_km": 35614.01971024978,
      "latitude_deg": -0.03860108834435668,
      "longitude_deg": -48.78430998606338,
      "height_km": 35614.12243974129,
      "semi_major_axis_km": 42164.01936136768,
      "eccentricity": 0.00407605,
      "inclination_deg": 12.6391,
      "raan_deg": 341.3272,
      "arg_perigee_deg": 356.6083,
      "mean_anomaly_deg": 3.1193,
      "mean_motion_rev_day": 1.00274327
    },
    {
      "epoch": "2026-04-30T11:27:08.745120Z",
      "apogee_km": 35957.40864391631,
      "perigee_km": 35614.50745436536,
      "latitude_deg": 0.03744144374225222,
      "longitude_deg": -48.78702571164833,
      "height_km": 35614.707277502544,
      "semi_major_axis_km": 42164.09504914084,
      "eccentricity": 0.00406627,
      "inclination_deg": 12.6383,
      "raan_deg": 341.3202,
      "arg_perigee_deg": 356.7614,
      "mean_anomaly_deg": 3.3105,
      "mean_motion_rev_day": 1.00274057
    },
    {
      "epoch": "2026-05-02T01:34:38.557056Z",
      "apogee_km": 35956.803766815334,
      "perigee_km": 35615.38312719376,
      "latitude_deg": -6.911340808970386,
      "longitude_deg": -49.70978775288596,
      "height_km": 35924.24412243694,
      "semi_major_axis_km": 42164.23044700455,
      "eccentricity": 0.0040487,
      "inclination_deg": 12.6372,
      "raan_deg": 341.3088,
      "arg_perigee_deg": 356.9862,
      "mean_anomaly_deg": 216.5442,
      "mean_motion_rev_day": 1.00273574
    },
    {
      "epoch": "2026-05-03T11:19:33.220992Z",
      "apogee_km": 35956.29614116861,
      "perigee_km": 35616.1553834777,
      "latitude_deg": 0.2751966606155947,
      "longitude_deg": -48.80122030710541,
      "height_km": 35616.63883930852,
      "semi_major_axis_km": 42164.36276232316,
      "eccentricity": 0.00403351,
      "inclination_deg": 12.6362,
      "raan_deg": 341.2986,
      "arg_perigee_deg": 357.1179,
      "mean_anomaly_deg": 4.041,
      "mean_motion_rev_day": 1.00273102
    },
    {
      "epoch": "2026-05-04T02:38:46.951296Z",
      "apogee_km": 35955.982797118246,
      "perigee_km": 35616.58870905184,
      "latitude_deg": -9.839677749209914,
      "longitude_deg": -49.8531435386946,
      "height_km": 35887.06127862515,
      "semi_major_axis_km": 42164.42275308504,
      "eccentricity": 0.00402465,
      "inclination_deg": 12.6358,
      "raan_deg": 341.2939,
      "arg_perigee_deg": 357.1832,
      "mean_anomaly_deg": 234.4178,
      "mean_motion_rev_day": 1.00272888
    },
    {
      "epoch": "2026-05-05T11:14:19.384224Z",
      "apogee_km": 35955.499922168,
      "perigee_km": 35617.36537233882,
      "latitude_deg": 0.4217899010319716,
      "longitude_deg": -48.814013891700675,
      "height_km": 35617.96958371364,
      "semi_major_axis_km": 42164.56964725341,
      "eccentricity": 0.0040097,
      "inclination_deg": 12.6349,
      "raan_deg": 341.2841,
      "arg_perigee_deg": 357.2648,
      "mean_anomaly_deg": 4.5705,
      "mean_motion_rev_day": 1.00272364
    },
    {
      "epoch": "2026-05-06T11:11:51.273888Z",
      "apogee_km": 35955.1597992648,
      "perigee_km": 35617.93256622485,
      "latitude_deg": 0.5027264141036141,
      "longitude_deg": -48.822603992697026,
      "height_km": 35618.590068565514,
      "semi_major_axis_km": 42164.683182744826,
      "eccentricity": 0.00399893,
      "inclination_deg": 12.6342,
      "raan_deg": 341.2769,
      "arg_perigee_deg": 357.2995,
      "mean_anomaly_deg": 4.9086,
      "mean_motion_rev_day": 1.00271959
    }
  ]
}